AFOTEC-1 (FALCON ODE)   
1 44225U 19026A   20200.25800518  .00000375  00000-0  24672-4 0  9998
2 44225  40.0178 180.2333 0007583 268.1020  91.8912 15.20851567 66980
SPARC-1                 
1 44226U 19026B   20199.64165363  .00000749  00000-0  39689-4 0  9990
2 44226  40.0181 179.0223 0011966 264.1803  95.7634 15.22282614 66947
ELECTRON KICK STAGE R/B 
1 44227U 19026C   20199.64920438  .00000555  00000-0  31757-4 0  9996
2 44227  40.0235 180.1592 0010359 267.6913  92.2702 15.21935449 66932
HARBINGER (ICEYE-X3)    
1 44229U 19026E   20200.31752060  .00000197  00000-0  16706-4 0  9998
2 44229  40.0179 178.8987 0008486 262.8997  97.0839 15.21078833 67008
